satname,norad_id,inclination_deg,eccentricity,mean_motion_rev_per_day,perigee_km,apogee_km,l1,l2
STARLINK-1143,45179,53.0468,0.0005066,15.57458741,391.5834984325302,398.44605581311043,1 45179U 20012B   26050.05347978  .00099917  00000+0  13257-2 0  9991,2 45179  53.0468  60.7178 0005066   9.1105 350.9997 15.57458741333015
STARLINK-1202,45183,53.161,0.0001571,15.30203189,474.1288875424443,476.2822077709179,1 45183U 20012F   26050.40037266  .00002703  00000+0  10336-3 0  9994,2 45183  53.1610 124.2033 0001571  82.3124 277.8055 15.30203189332158
STARLINK-1216,45185,53.161,0.0001279,15.30201085,474.33528649147866,476.0883731221438,1 45185U 20012H   26050.58683195 -.00000461  00000+0 -34514-5 0  9990,2 45185  53.1610 123.3175 0001279  87.9611 272.1537 15.30201085332127
STARLINK-1225,45187,53.1611,0.0001622,15.3019518,474.1178450682992,476.34107714828133,1 45187U 20012K   26050.51842986  .00002212  00000+0  86790-4 0  9996,2 45187  53.1611 124.0766 0001622  65.0421 295.0748 15.30195180332151
STARLINK-1230,45189,53.1614,0.0001391,15.30201392,474.2576124666639,476.16421385610465,1 45189U 20012M   26050.59322639  .00000501  00000+0  29036-4 0  9993,2 45189  53.1614 123.7866 0001391  84.9172 275.1988 15.30201392329399
STARLINK-1234,45190,53.0448,0.0005328,15.57913699,390.0880365917765,397.3041019103712,1 45190U 20012N   26050.58336806  .00072915  00000+0  95603-3 0  9995,2 45190  53.0448  53.5067 0005328 279.1111  71.4108 15.57913699  5934
STARLINK-1269,45197,53.161,0.0001436,15.30198293,474.2360241293045,476.20430830744135,1 45197U 20012V   26050.59004574  .00001647  00000+0  67729-4 0  9990,2 45197  53.1610 123.6601 0001436  99.0592 261.0572 15.30198293332148
STARLINK-1154,45198,53.0489,0.0006555,15.43078579,432.56230322724787,441.496986698794,1 45198U 20012W   26050.50193592  .00066734  00000+0  14823-2 0  9994,2 45198  53.0489  96.5528 0006555  17.5764 342.5467 15.43078579332484
STARLINK-1199,45201,53.106,0.0001397,15.18573081,509.18997294578276,511.1145609669711,1 45201U 20012Z   26050.58336806  .00945819  00000+0  41712-1 0  9990,2 45201  53.1060 107.6155 0001397  74.8024 236.8978 15.18573081  5837
STARLINK-1209,45206,53.048,0.0006807,15.47583534,419.16735462832185,428.42750816322405,1 45206U 20012AE  26050.41804991  .00082193  00000+0  15604-2 0  9991,2 45206  53.0480  61.0197 0006807 237.1490 122.8862 15.47583534332080
STARLINK-1210,45207,53.0121,0.0004834,16.02771614,263.5350056563566,269.95927964547263,1 45207U 20012AF  26050.08312524  .00519025  13357-3  84491-3 0  9994,2 45207  53.0121 355.6454 0004834 109.8517 250.3035 16.02771614333916
STARLINK-1231,45212,53.0463,0.0003628,15.19459158,504.97595639085284,509.97215577314546,1 45212U 20012AL  26050.40309201  .00036043  00000+0  16852-2 0  9990,2 45212  53.0463  99.6573 0003628  11.0597 349.0477 15.19459158332446
STARLINK-1271,45217,53.0984,2.73e-05,15.17390666,513.5420853344385,513.9183812853771,1 45217U 20012AR  26050.58336806  .00117514  00000+0  57319-2 0  9991,2 45217  53.0984 107.7033 0000273 164.3243 178.9974 15.17390666  5831
STARLINK-1191,45222,53.1578,0.0001205,15.31045214,471.86704886162806,473.5180987889198,1 45222U 20012AW  26050.58022228  .00007835  00000+0  26934-3 0  9991,2 45222  53.1578  82.9746 0001205  92.1256 267.9883 15.31045214332743
STARLINK-1212,45223,53.0524,0.0005174,15.44822411,428.37641914982214,435.42344536732253,1 45223U 20012AX  26050.53178074  .00073765  00000+0  15428-2 0  9998,2 45223  53.0524  77.1322 0005174  40.4963 319.6427 15.44822411332824
STARLINK-1215,45225,53.1608,0.0001425,15.30200504,474.2369621111329,476.1901670220341,1 45225U 20012AZ  26050.36756161  .00000845  00000+0  40645-4 0  9990,2 45225  53.1608  83.4087 0001425  81.6518 278.4644 15.30200504332670
STARLINK-1221,45227,53.0689,0.0002464,15.41196657,440.8957947267254,444.25704229936764,1 45227U 20012BB  26050.11000304  .00016964  00000+0  41128-3 0  9991,2 45227  53.0689 357.6058 0002464   3.8516 356.2507 15.41196657333840
STARLINK-1222,45228,53.0551,0.0003902,15.48400695,418.75091452054585,424.0572763914406,1 45228U 20012BC  26050.42489865  .00030530  00000+0  57257-3 0  9994,2 45228  53.0551  70.3037 0003902  32.8117 327.3132 15.48400695332795
STARLINK-1226,45229,53.1593,0.0001334,15.31027591,471.8312373477502,473.65905270404164,1 45229U 20012BD  26050.40099515  .00000212  00000+0  18901-4 0  9990,2 45229  53.1593  83.6102 0001334  85.7947 274.3207 15.31027591332615
STARLINK-1227,45230,53.1608,0.00012,15.31035762,471.8986670444019,473.5428729091964,1 45230U 20012BE  26050.49393098 -.00001417  00000+0 -34699-4 0  9996,2 45230  53.1608  83.4885 0001200  98.8271 261.2866 15.31035762332746
STARLINK-1246,45235,53.1598,0.000127,15.30200578,474.34296812241246,476.08371910969163,1 45235U 20012BK  26050.59947758  .00005760  00000+0  20646-3 0  9999,2 45235  53.1598 123.2767 0001270  87.1959 272.9187 15.30200578332206
STARLINK-1270,45237,53.0502,0.0004278,15.43837504,431.88140701731663,437.7105524747867,1 45237U 20012BM  26050.53806717  .00074867  00000+0  16188-2 0  9993,2 45237  53.0502  74.0447 0004278   5.2673 354.8377 15.43837504332867
STARLINK-1279,45360,53.0458,0.0004006,15.53741999,403.09430018344756,408.52960008229365,1 45360U 20019A   26050.57882422  .00101760  00000+0  15480-2 0  9995,2 45360  53.0458 186.3303 0004006 146.2782 213.8483 15.53741999327856
STARLINK-1301,45361,53.0452,0.0005729,15.60582772,382.0974401999747,389.8477569780389,1 45361U 20019B   26050.56297620  .00118603  00000+0  13937-2 0  9994,2 45361  53.0452 192.7626 0005729 149.6724 210.4621 15.60582772327774
STARLINK-1262,45366,53.065,0.0001361,15.09438451,536.9734934168591,538.8560427081247,1 45366U 20019G   26050.58336806  .00041613  00000+0  25746-2 0  9998,2 45366  53.0650 247.8775 0001361 130.8618 262.9872 15.09438451  5790
STARLINK-1273,45367,53.0509,0.0001465,15.42161247,438.73316057842294,440.73079618909014,1 45367U 20019H   26049.75294767  .00073454  00000+0  16811-2 0  9996,2 45367  53.0509 244.7486 0001465 149.3855 210.7235 15.42161247326975
STARLINK-1276,45368,53.0548,0.000127,15.0638699,546.3719076706066,548.1309563323348,1 45368U 20019J   26050.57198257  .00000993  00000+0  85605-4 0  9993,2 45368  53.0548 247.9509 0001270  89.3614 270.7521 15.06386990327003
STARLINK-1277,45369,53.0514,8.71e-05,15.45673339,428.8073805247968,429.9932535254229,1 45369U 20019K   26050.54208731  .00119557  00000+0  24101-2 0  9999,2 45369  53.0514 239.3144 0000871 104.7513 255.3590 15.45673339327120
STARLINK-1281,45370,53.053,0.0001859,15.06405114,545.9084649259767,548.4833036923628,1 45370U 20019L   26049.83110950  .00001439  00000+0  11545-3 0  9994,2 45370  53.0530 251.2773 0001859 104.1317 255.9879 15.06405114326894
STARLINK-1300,45374,53.0543,0.0001371,15.06393605,546.2816897871371,548.1806257359949,1 45374U 20019Q   26050.58303251  .00000197  00000+0  32104-4 0  9995,2 45374  53.0543 247.9006 0001371  98.4823 261.6321 15.06393605327000
STARLINK-1302,45375,53.0518,0.0002595,15.46747474,424.4825623917677,428.0140383626631,1 45375U 20019R   26050.00002314  .00155675  00000+0  30078-2 0  9997,2 45375  53.0518 241.2949 0002595 174.8475 218.6628 15.46747474  5867
STARLINK-1304,45376,53.0512,0.0003966,15.4492357,428.9019130815259,434.3033985765296,1 45376U 20019S   26049.96851976  .00070298  00000+0  14665-2 0  9998,2 45376  53.0512 238.8546 0003966 159.8993 200.2169 15.44923570327076
STARLINK-1305,45377,53.0461,0.0005187,15.49285353,415.28986418324257,422.34102264804187,1 45377U 20019T   26050.47519964  .00077755  00000+0  13927-2 0  9990,2 45377  53.0461 219.8101 0005187 113.7703 246.3849 15.49285353327397
STARLINK-1319,45379,53.0484,0.0004998,15.55166154,398.28113582072274,405.0582305812504,1 45379U 20019V   26049.70291707  .00102067  00000+0  14737-2 0  9993,2 45379  53.0484 222.1529 0004998 131.8503 228.2935 15.55166154327291
STARLINK-1266,45383,53.0523,7.12e-05,15.42733402,437.56086223878356,438.5314867228308,1 45383U 20019Z   26050.46939053  .00114171  00000+0  25447-2 0  9995,2 45383  53.0523 219.6005 0000712 186.2205 173.8791 15.42733402327380
STARLINK-1267,45384,53.0532,0.0006864,15.4644013,422.4786705005745,431.8209682462102,1 45384U 20019AA  26050.47779402  .00088317  00000+0  17422-2 0  9993,2 45384  53.0532 214.1274 0006864 172.9731 187.1373 15.46440130327469
STARLINK-1272,45386,53.0464,0.0004617,15.52448004,406.44723767971664,412.71501659831665,1 45386U 20019AC  26049.70023001  .00095177  00000+0  15187-2 0  9994,2 45386  53.0464 201.5096 0004617 134.5647 225.5739 15.52448004327571
STARLINK-1274,45387,53.0292,0.0006815,15.44804372,427.31187066257826,436.59402326028703,1 45387U 20019AD  26050.55397536  .00062647  00000+0  13138-2 0  9997,2 45387  53.0292 189.4475 0006815 171.4596 188.6527 15.44804372327817
STARLINK-1280,45388,53.0461,0.000464,15.61748668,379.46877691630834,385.7427461990337,1 45388U 20019AE  26050.43727972  .00103543  00000+0  11665-2 0  9990,2 45388  53.0461 211.9187 0004640 130.4869 229.6549 15.61748668327486
STARLINK-1283,45389,53.0463,0.0008173,15.52300205,404.4640183529291,415.5599266633917,1 45389U 20019AF  26050.45874130  .00108474  00000+0  17347-2 0  9993,2 45389  53.0463 198.0485 0008173 167.0371 193.0849 15.52300205327695
STARLINK-1284,45390,53.0504,0.0001261,15.48296462,420.851799747983,422.56672097484534,1 45390U 20019AG  26049.78538924  .00091913  00000+0  17003-2 0  9995,2 45390  53.0504 221.6932 0001261 173.1590 186.9434 15.48296462327296
STARLINK-1297,45395,53.0501,7.04e-05,15.50496604,414.7968643963495,415.7533768229323,1 45395U 20019AM  26050.59649302  .00093194  00000+0  15954-2 0  9990,2 45395  53.0501 217.8094 0000704 235.2732 124.8209 15.50496604326601
STARLINK-1307,45397,53.055,0.0001036,15.48852602,419.3771393434945,420.7857302031798,1 45397U 20019AP  26049.78358511  .00020721  00000+0  38570-3 0  9996,2 45397  53.0550 221.3768 0001036  79.2395 280.8729 15.48852602327124
